LANDSAT 9               
1 49260U 21088A   24079.21423931  .00000612  00000+0  14576-3 0  9991
2 49260  98.1948 150.3275 0001411  94.5034 265.6326 14.57116525131593
